NORAD_CAT_ID,OBJECT_NAME,OBJECT_TYPE,EPOCH,MEAN_MOTION,ECCENTRICITY,INCLINATION,RA_OF_ASC_NODE,ARG_OF_PERICENTER,MEAN_ANOMALY,BSTAR,MEAN_MOTION_DOT,MEAN_MOTION_DDOT,TLE_LINE0,TLE_LINE1,TLE_LINE2,SEMIMAJOR_AXIS,PERIOD,APOGEE,PERIGEE,DECAYED
53992.0,STARLINK-5108,PAYLOAD,2024-08-05 23:16:50,15.08848385,0.0001584,53.2177,301.0724,96.7756,263.3416,0.00019958,2.89e-05,0.0,0 STARLINK-5108,1 53992U 22125AE  24218.97002945  .00002890  00000-0  19958-3 0  9997,2 53992  53.2177 301.0724 0001584  96.7756 263.3416 15.08848385101861,6917.855,95.437,540.816,538.624,0.0
53992.0,STARLINK-5108,PAYLOAD,2024-08-06 08:49:10,15.08825215,0.0001441,53.2154,299.2881,111.0297,249.0849,-0.0003853,-6.412e-05,0.0,0 STARLINK-5108,1 53992U 22125AE  24219.36747746 -.00006412  00000-0 -38530-3 0  9999,2 53992  53.2154 299.2881 0001441 111.0297 249.0849 15.08825215101926,6917.926,95.438,540.787,538.794,0.0
53992.0,STARLINK-5108,PAYLOAD,2024-08-07 11:50:43,15.08855147,0.0001398,53.216,294.2352,104.6854,255.4293,0.0013039,0.00020533,0.0,0 STARLINK-5108,1 53992U 22125AE  24220.49356219  .00020533  00000-0  13039-2 0  9990,2 53992  53.2160 294.2352 0001398 104.6854 255.4293 15.08855147102099,6917.834,95.437,540.666,538.732,0.0
53992.0,STARLINK-5108,PAYLOAD,2024-08-08 10:06:07,15.08862463,0.0001701,53.2162,290.0712,106.9901,253.1277,0.00062135,9.621e-05,0.0,0 STARLINK-5108,1 53992U 22125AE  24221.42091534  .00009621  00000-0  62135-3 0  9997,2 53992  53.2162 290.0712 0001701 106.9901 253.1277 15.08862463102154,6917.812,95.436,540.853,538.5,0.0
53992.0,STARLINK-5108,PAYLOAD,2024-08-09 11:32:17,15.08842552,0.0001477,53.2154,285.3145,90.851,269.2651,2.6048e-05,1.27e-06,0.0,0 STARLINK-5108,1 53992U 22125AE  24222.48075705  .00000127  00000-0  26048-4 0  9992,2 53992  53.2154 285.3145 0001477  90.8510 269.2651 15.08842552102396,6917.873,95.437,540.759,538.716,0.0
53992.0,STARLINK-5108,PAYLOAD,2024-08-10 11:23:04,15.0883805,0.0001498,53.2159,280.852,81.2259,278.8902,-2.637e-05,-7.08e-06,0.0,0 STARLINK-5108,1 53992U 22125AE  24223.47436140 -.00000708  00000-0 -26370-4 0  9991,2 53992  53.2159 280.8520 0001498  81.2259 278.8902 15.08838050102545,6917.886,95.438,540.788,538.715,0.0
53992.0,STARLINK-5108,PAYLOAD,2024-08-10 12:58:27,15.08841392,0.0001446,53.2154,280.5515,100.7518,259.3637,1.8718e-05,1e-07,0.0,0 STARLINK-5108,1 53992U 22125AE  24223.54059833  .00000010  00000-0  18718-4 0  9990,2 53992  53.2154 280.5515 0001446 100.7518 259.3637 15.08841392102473,6917.876,95.437,540.741,538.741,0.0
53992.0,STARLINK-5108,PAYLOAD,2024-08-11 03:16:56,15.08829545,0.0001637,53.2149,277.8781,74.8285,285.2888,-1.0043e-05,-4.48e-06,0.0,0 STARLINK-5108,1 53992U 22125AE  24224.13677015 -.00000448  00000-0 -10043-4 0  9994,2 53992  53.2149 277.8781 0001637  74.8285 285.2888 15.08829545102646,6917.912,95.438,540.91,538.645,0.0
53992.0,STARLINK-5108,PAYLOAD,2024-08-11 20:46:11,15.08838037,0.0001647,53.2145,274.6077,77.442,282.6756,0.0001486,2.078e-05,0.0,0 STARLINK-5108,1 53992U 22125AE  24224.86540993  .00002078  00000-0  14860-3 0  9997,2 53992  53.2145 274.6077 0001647  77.4420 282.6756 15.08838037102670,6917.886,95.438,540.891,538.612,0.0
53992.0,STARLINK-5108,PAYLOAD,2024-08-12 03:07:45,15.08801418,0.0001285,53.2158,273.415,104.6217,255.4918,-0.00038408,-6.389e-05,0.0,0 STARLINK-5108,1 53992U 22125AE  24225.13038914 -.00006389  00000-0 -38408-3 0  9998,2 53992  53.2158 273.4150 0001285 104.6217 255.4918 15.08801418102792,6917.998,95.44,540.752,538.974,0.0
53992.0,STARLINK-5108,PAYLOAD,2024-08-12 11:04:40,15.08825511,0.0001547,53.2163,271.9286,98.0939,262.0228,2.1036e-05,4.7e-07,0.0,0 STARLINK-5108,1 53992U 22125AE  24225.46158391  .00000047  00000-0  21036-4 0  9999,2 53992  53.2163 271.9286 0001547  98.0939 262.0228 15.08825511102843,6917.925,95.438,540.86,538.719,0.0
53992.0,STARLINK-5108,PAYLOAD,2024-08-13 09:20:04,15.08819955,0.0001499,53.2159,267.7697,86.3543,273.7621,-0.00017586,-3.084e-05,0.0,0 STARLINK-5108,1 53992U 22125AE  24226.38894560 -.00003084  00000-0 -17586-3 0  9996,2 53992  53.2159 267.7697 0001499  86.3543 273.7621 15.08819955102902,6917.942,95.439,540.844,538.77,0.0
53992.0,STARLINK-5108,PAYLOAD,2024-08-14 04:24:42,15.08834829,9.68e-05,53.2154,264.2001,80.8681,279.2421,0.00038949,5.915e-05,0.0,0 STARLINK-5108,1 53992U 22125AE  24227.18382954  .00005915  00000-0  38949-3 0  9993,2 53992  53.2154 264.2001 0000968  80.8681 279.2421 15.08834829103109,6917.896,95.438,540.431,539.092,0.0
53992.0,STARLINK-5108,PAYLOAD,2024-08-14 13:57:01,15.08855587,8.75e-05,53.2148,262.4152,87.8534,272.2558,0.0012318,0.00019379,0.0,0 STARLINK-5108,1 53992U 22125AE  24227.58126995  .00019379  00000-0  12318-2 0  9998,2 53992  53.2148 262.4152 0000875  87.8534 272.2558 15.08855587103085,6917.833,95.437,540.303,539.092,0.0
53992.0,STARLINK-5108,PAYLOAD,2024-08-14 21:53:56,15.08865665,8.74e-05,53.2148,260.928,89.7611,270.3481,0.0010363,0.00016255,0.0,0 STARLINK-5108,1 53992U 22125AE  24227.91246516  .00016255  00000-0  10363-2 0  9995,2 53992  53.2148 260.9280 0000874  89.7611 270.3481 15.08865665103134,6917.802,95.436,540.272,539.062,0.0
53992.0,STARLINK-5108,PAYLOAD,2024-08-15 13:47:47,15.08881043,8.31e-05,53.2147,257.9545,87.9853,272.1234,0.00091472,0.00014316,0.0,0 STARLINK-5108,1 53992U 22125AE  24228.57485146  .00014316  00000-0  91472-3 0  9999,2 53992  53.2147 257.9545 0000831  87.9853 272.1234 15.08881043103239,6917.755,95.435,540.195,539.045,0.0
53992.0,STARLINK-5108,PAYLOAD,2024-08-15 18:33:56,15.08862802,0.0001017,53.2147,257.0625,75.3645,284.746,0.00020865,3.036e-05,0.0,0 STARLINK-5108,1 53992U 22125AE  24228.77357284  .00003036  00000-0  20865-3 0  9997,2 53992  53.2147 257.0625 0001017  75.3645 284.7460 15.08862802103340,6917.811,95.436,540.379,538.972,0.0
53992.0,STARLINK-5108,PAYLOAD,2024-08-15 21:44:42,15.08865157,0.0001031,53.2146,256.4679,103.1347,256.976,0.00025305,3.744e-05,0.0,0 STARLINK-5108,1 53992U 22125AE  24228.90605001  .00003744  00000-0  25305-3 0  9995,2 53992  53.2146 256.4679 0001031 103.1347 256.9760 15.08865157103289,6917.803,95.436,540.382,538.955,0.0
53992.0,STARLINK-5108,PAYLOAD,2024-08-16 04:06:15,15.08853913,8.44e-05,53.2144,255.2785,85.3255,274.7833,-2.9702e-05,-7.61e-06,0.0,0 STARLINK-5108,1 53992U 22125AE  24229.17101077 -.00000761  00000-0 -29702-4 0  9993,2 53992  53.2144 255.2785 0000844  85.3255 274.7833 15.08853913103402,6917.838,95.437,540.287,539.119,0.0
53992.0,STARLINK-5108,PAYLOAD,2024-08-16 13:38:34,15.08853021,8.19e-05,53.2143,253.4939,85.7059,274.4027,6.5064e-05,7.48e-06,0.0,0 STARLINK-5108,1 53992U 22125AE  24229.56844926  .00000748  00000-0  65064-4 0  9997,2 53992  53.2143 253.4939 0000819  85.7059 274.4027 15.08853021103389,6917.841,95.437,540.272,539.139,0.0
53992.0,STARLINK-5108,PAYLOAD,2024-08-17 03:57:03,15.08844365,8.15e-05,53.2152,250.8177,82.5271,277.5814,-3.8834e-05,-9.06e-06,0.0,0 STARLINK-5108,1 53992U 22125AE  24230.16461814 -.00000906  00000-0 -38834-4 0  9999,2 53992  53.2152 250.8177 0000815  82.5271 277.5814 15.08844365103559,6917.867,95.437,540.296,539.168,0.0
53992.0,STARLINK-5108,PAYLOAD,2024-08-17 11:53:58,15.08846798,8.59e-05,53.2152,249.3303,81.1723,278.9366,-5.0972e-05,-1.099e-05,0.0,0 STARLINK-5108,1 53992U 22125AE  24230.49581406 -.00001099  00000-0 -50972-4 0  9996,2 53992  53.2152 249.3303 0000859  81.1723 278.9366 15.08846798103524,6917.86,95.437,540.319,539.13,0.0
53992.0,STARLINK-5108,PAYLOAD,2024-08-17 21:26:16,15.08849775,8.11e-05,53.2152,247.5468,82.1207,277.9878,-7.5534e-05,-1.49e-05,0.0,0 STARLINK-5108,1 53992U 22125AE  24230.89325059 -.00001490  00000-0 -75534-4 0  9996,2 53992  53.2152 247.5468 0000811  82.1207 277.9878 15.08849775103583,6917.851,95.437,540.277,539.154,0.0
53992.0,STARLINK-5108,PAYLOAD,2024-08-18 05:23:12,15.08844844,9.08e-05,53.2152,246.0594,73.1695,286.9397,0.00011309,1.513e-05,0.0,0 STARLINK-5108,1 53992U 22125AE  24231.22444871  .00001513  00000-0  11309-3 0  9991,2 53992  53.2152 246.0594 0000908  73.1695 286.9397 15.08844844103639,6917.866,95.437,540.359,539.102,0.0
53992.0,STARLINK-5108,PAYLOAD,2024-08-18 10:09:21,15.08847905,9.27e-05,53.2152,245.1673,72.5303,287.579,0.00013036,1.788e-05,0.0,0 STARLINK-5108,1 53992U 22125AE  24231.42316613  .00001788  00000-0  13036-3 0  9998,2 53992  53.2152 245.1673 0000927  72.5303 287.5790 15.08847905103744,6917.856,95.437,540.363,539.08,0.0
53992.0,STARLINK-5108,PAYLOAD,2024-08-19 08:24:46,15.08836671,9.33e-05,53.2151,241.0042,79.4392,280.6705,7.014e-05,8.29e-06,0.0,0 STARLINK-5108,1 53992U 22125AE  24232.35053542  .00000829  00000-0  70140-4 0  9995,2 53992  53.2151 241.0042 0000933  79.4392 280.6705 15.08836671103882,6917.891,95.438,540.401,539.11,0.0
53992.0,STARLINK-5108,PAYLOAD,2024-08-20 06:40:09,15.08843162,9.54e-05,53.2149,236.8405,83.8423,276.2678,2.0038e-05,3.1e-07,0.0,0 STARLINK-5108,1 53992U 22125AE  24233.27789255  .00000031  00000-0  20038-4 0  9990,2 53992  53.2149 236.8405 0000954  83.8423 276.2678 15.08843162103941,6917.871,95.437,540.396,539.076,0.0
53992.0,STARLINK-5108,PAYLOAD,2024-08-21 04:55:33,15.08844165,9.76e-05,53.215,232.6774,83.3255,276.7848,0.0001025,1.344e-05,0.0,0 STARLINK-5108,1 53992U 22125AE  24234.20524864  .00001344  00000-0  10250-3 0  9999,2 53992  53.2150 232.6774 0000976  83.3255 276.7848 15.08844165104161,6917.868,95.437,540.408,539.057,0.0
53992.0,STARLINK-5108,PAYLOAD,2024-08-21 06:30:56,15.08845066,9.96e-05,53.2147,232.3799,83.9113,276.1992,0.0001109,1.478e-05,0.0,0 STARLINK-5108,1 53992U 22125AE  24234.27148775  .00001478  00000-0  11090-3 0  9990,2 53992  53.2147 232.3799 0000996  83.9113 276.1992 15.08845066104099,6917.865,95.437,540.419,539.041,0.0
53992.0,STARLINK-5108,PAYLOAD,2024-08-22 04:46:21,15.08837293,0.0001107,53.2151,228.2165,89.8913,270.2206,1.2524e-05,-8.8e-07,0.0,0 STARLINK-5108,1 53992U 22125AE  24235.19885555 -.00000088  00000-0  12524-4 0  9997,2 53992  53.2151 228.2165 0001107  89.8913 270.2206 15.08837293104314,6917.889,95.438,540.519,538.988,0.0
